STARLINK-1854
1 17141C 20088V   21326.06480743  .00003634  00000-0  24355-3 0  3263
2 17141  53.0608 133.4039 0001788  79.7217 301.6183 15.06386113    18
